[{"OBJECT_NAME":"STARLINK-34421","OBJECT_ID":"2025-130X","EPOCH":"2026-02-26T14:23:06.194400","MEAN_MOTION":15.30192148,"ECCENTRICITY":0.0001089,"INCLINATION":53.1579,"RA_OF_ASC_NODE":140.1444,"ARG_OF_PERICENTER":89.4709,"MEAN_ANOMALY":270.6416,"EPHEMERIS_TYPE":0,"CLASSIFICATION_TYPE":"U","NORAD_CAT_ID":64459,"ELEMENT_SET_NO":999,"REV_AT_EPOCH":3900,"BSTAR":0.00099213,"MEAN_MOTION_DOT":0.00029133,"MEAN_MOTION_DDOT":0},{"OBJECT_NAME":"CZ-4C R\/B","OBJECT_ID":"2023-123B","EPOCH":"2026-03-09T21:44:40.426944","MEAN_MOTION":15.36684191,"ECCENTRICITY":0.00627803,"INCLINATION":97.9677,"RA_OF_ASC_NODE":50.672,"ARG_OF_PERICENTER":67.0775,"MEAN_ANOMALY":293.7077,"EPHEMERIS_TYPE":0,"CLASSIFICATION_TYPE":"U","NORAD_CAT_ID":57655,"ELEMENT_SET_NO":999,"REV_AT_EPOCH":14181,"BSTAR":0.00052203987,"MEAN_MOTION_DOT":0.00019917,"MEAN_MOTION_DDOT":0}]
